{
    "links": {
        "self": "http://www.neowsapp.com/rest/v1/neo/3829461?api_key=iIulBulltgU6a56xZRHN4H3l9WmuAYTsLGpBGhQ2"
    },
    "id": "3829461",
    "neo_reference_id": "3829461",
    "name": "(2018 RF7)",
    "designation": "2018 RF7",
    "nasa_jpl_url": "http://ssd.jpl.nasa.gov/sbdb.cgi?sstr=3829461",
    "absolute_magnitude_h": 23.7,
    "estimated_diameter": {
        "kilometers": {
            "estimated_diameter_min": 0.0483676488,
            "estimated_diameter_max": 0.1081533507
        },
        "meters": {
            "estimated_diameter_min": 48.3676488219,
            "estimated_diameter_max": 108.1533506775
        },
        "miles": {
            "estimated_diameter_min": 0.0300542543,
            "estimated_diameter_max": 0.0672033557
        },
        "feet": {
            "estimated_diameter_min": 158.6865169607,
            "estimated_diameter_max": 354.8338390368
        }
    },
    "is_potentially_hazardous_asteroid": false,
    "close_approach_data": [
        {
            "close_approach_date": "2018-09-02",
            "close_approach_date_full": "2018-Sep-02 03:13",
            "epoch_date_close_approach": 1535857980000,
            "relative_velocity": {
                "kilometers_per_second": "2.5923458276",
                "kilometers_per_hour": "9332.4449794064",
                "miles_per_hour": "5798.8183817873"
            },
            "miss_distance": {
                "astronomical": "0.2869784011",
                "lunar": "111.6345980279",
                "kilometers": "42931357.540565657",
                "miles": "26676308.5788417866"
            },
            "orbiting_body": "Earth"
        }
    ],
    "orbital_data": {
        "orbit_id": "4",
        "orbit_determination_date": "2018-09-27 06:26:09",
        "first_observation_date": "2018-09-13",
        "last_observation_date": "2018-09-20",
        "data_arc_in_days": 7,
        "observations_used": 32,
        "orbit_uncertainty": "9",
        "minimum_orbit_intersection": ".286876",
        "jupiter_tisserand_invariant": "3.267",
        "epoch_osculation": "2458376.5",
        "eccentricity": ".4898517109347501",
        "semi_major_axis": "2.538981056600495",
        "inclination": "1.923255626325873",
        "ascending_node_longitude": "188.0227342277629",
        "orbital_period": "1477.704574552622",
        "perihelion_distance": "1.295256841993823",
        "perihelion_argument": "153.1023282810707",
        "aphelion_distance": "3.782705271207167",
        "perihelion_time": "2458365.642869546767",
        "mean_anomaly": "2.645025961530374",
        "mean_motion": ".2436210905748809",
        "equinox": "J2000",
        "orbit_class": {
            "orbit_class_type": "AMO",
            "orbit_class_description": "Near-Earth asteroid orbits similar to that of 1221 Amor",
            "orbit_class_range": "1.017 AU < q (perihelion) < 1.3 AU"
        }
    },
    "is_sentry_object": false
}